SHIYAN-1 (SY-1)         
1 28220U 04012A   26068.73650539  .00016393  00000+0  54854-3 0  9991
2 28220  97.8764 140.5238 0005873  23.6952 336.4557 15.31043463195862
STARLINK-34217          
1 64488U 25133S   26068.54133732  .00028581  00000+0  97324-3 0  9995
2 64488  53.1585 117.6300 0001086  81.4506 278.6618 15.30205630 41059
